HELIOS 2A               
1 28492U 04049A   23340.14991529  .00003471  00000+0  31454-3 0  9998
2 28492  98.3041 316.4696 0014996 115.2599 245.0176 14.96011664 15276
SPIRALE A               
1 33751U 09008C   23339.67433152  .00000708  00000+0  11614-2 0  9996
2 33751   2.0616 101.0713 5516047 190.2123 150.6732  4.59236224219457
SPIRALE B               
1 33752U 09008D   23339.60313499  .00003689  00000+0  12092-2 0  9993
2 33752   1.7640 184.6514 6784304  14.2323 358.0973  2.91692456140404
SAPPHIRE                
1 39088U 13009C   23340.11274070  .00000237  00000+0  99010-4 0  9999
2 39088  98.4081 167.0129 0012350 117.7727 242.4712 14.34563472564072
